NORAD_CAT_ID,OBJECT_NAME,OBJECT_TYPE,EPOCH,MEAN_MOTION,ECCENTRICITY,INCLINATION,RA_OF_ASC_NODE,ARG_OF_PERICENTER,MEAN_ANOMALY,BSTAR,MEAN_MOTION_DOT,MEAN_MOTION_DDOT,TLE_LINE0,TLE_LINE1,TLE_LINE2,SEMIMAJOR_AXIS,PERIOD,APOGEE,PERIGEE,DECAYED
51972.0,STARLINK-3671,PAYLOAD,2022-04-26 06:00:00,15.69752301,0.0001059,53.2174,263.7945,65.4154,290.3852,-0.0064159,-0.00715431,0.0,0 STARLINK-3671,1 51972U 22025S   22116.25001157 -.00715431  00000-0 -64159-2 0  9998,2 51972  53.2174 263.7945 0001059  65.4154 290.3852 15.69752301  8785,6737.743,91.734,360.321,358.894,0.0
51972.0,STARLINK-3671,PAYLOAD,2022-04-26 14:00:01,15.6924403,0.0001235,53.2174,262.1577,54.3857,25.9531,-0.0065778999999999,-0.00717927,0.0,0 STARLINK-3671,1 51972U 22025S   22116.58335648 -.00717927  00000-0 -65779-2 0  9990,2 51972  53.2174 262.1577 0001235  54.3857  25.9531 15.69244030  3698,6739.198,91.764,361.895,360.23,0.0
51972.0,STARLINK-3671,PAYLOAD,2022-04-26 22:00:00,15.68733524,0.0001293,53.2171,260.5217,56.397,107.7374,-0.0067051999999999,-0.00716598,0.0,0 STARLINK-3671,1 51972U 22025S   22116.91667824 -.00716598  00000-0 -67052-2 0  9990,2 51972  53.2171 260.5217 0001293  56.3970 107.7374 15.68733524  3661,6740.66,91.794,363.396,361.653,0.0
51972.0,STARLINK-3671,PAYLOAD,2022-04-27 06:00:00,15.6822237,0.0001229,53.2173,258.8839,64.811,182.5738,-0.0068257,-0.00714399,0.0,0 STARLINK-3671,1 51972U 22025S   22117.25001157 -.00714399  00000-0 -68257-2 0  9994,2 51972  53.2173 258.8839 0001229  64.8110 182.5738 15.68222370  8945,6742.124,91.824,364.818,363.161,0.0
51972.0,STARLINK-3671,PAYLOAD,2022-04-27 14:00:01,15.67714826,0.0001289,53.2175,257.2508,52.203,277.8813,-0.0070149,-0.00718661,0.0,0 STARLINK-3671,1 51972U 22025S   22117.58335648 -.00718661  00000-0 -70149-2 0  9994,2 51972  53.2175 257.2508 0001289  52.2030 277.8813 15.67714826  3691,6743.579000000002,91.853,366.31300000000016,364.575,0.0
51972.0,STARLINK-3671,PAYLOAD,2022-04-28 06:00:00,15.66693617,0.0001315,53.2173,253.9844,52.6542,80.7996,-0.0072901,-0.00716507,0.0,0 STARLINK-3671,1 51972U 22025S   22118.25001157 -.00716507  00000-0 -72901-2 0  9999,2 51972  53.2173 253.9844 0001315  52.6542  80.7996 15.66693617  9093,6746.509,91.913,369.261,367.487,0.0
51972.0,STARLINK-3671,PAYLOAD,2022-04-28 14:00:01,15.66181669,0.0001541,53.2175,252.3553,46.8089,167.4423,-0.0074042,-0.00713095,0.0,0 STARLINK-3671,1 51972U 22025S   22118.58334491 -.00713095  00000-0 -74042-2 0  9992,2 51972  53.2175 252.3553 0001541  46.8089 167.4423 15.66181669  3706,6747.979,91.943,370.884,368.805,0.0
51972.0,STARLINK-3671,PAYLOAD,2022-04-29 06:00:00,15.65162823,0.0001286999999999,53.2172,249.0962,44.8795,329.1289,-0.0077411999999999,-0.00715274,0.0,0 STARLINK-3671,1 51972U 22025S   22119.25001157 -.00715274  00000-0 -77412-2 0  9992,2 51972  53.2172 249.0962 0001287  44.8795 329.1289 15.65162823  9252,6750.908,92.003,373.641,371.904,0.0
51972.0,STARLINK-3671,PAYLOAD,2022-04-29 14:00:01,15.64654097,0.0001681,53.2173,247.471,34.2855,58.6805,-0.0079179,-0.00716785,0.0,0 STARLINK-3671,1 51972U 22025S   22119.58334491 -.00716785  00000-0 -79179-2 0  9998,2 51972  53.2173 247.4710 0001681  34.2855  58.6805 15.64654097  3704,6752.371,92.033,375.371,373.101,0.0
51972.0,STARLINK-3671,PAYLOAD,2022-04-29 22:00:00,15.64144968,0.0001406,53.2172,245.8453,51.1428,120.1693,-0.0080974999999999,-0.00718116,0.0,0 STARLINK-3671,1 51972U 22025S   22119.91667824 -.00718116  00000-0 -80975-2 0  9990,2 51972  53.2172 245.8453 0001406  51.1428 120.1693 15.64144968  3697,6753.8359999999975,92.063,376.651,374.751,0.0
51972.0,STARLINK-3671,PAYLOAD,2022-04-30 06:00:00,15.63633133,0.0001481,53.2174,244.2189,47.5546,201.4927,-0.0082218999999999,-0.00714776,0.0,0 STARLINK-3671,1 51972U 22025S   22120.25001157 -.00714776  00000-0 -82219-2 0  9991,2 51972  53.2174 244.2189 0001481  47.5546 201.4927 15.63633133  9416,6755.31,92.093,378.175,376.174,0.0
51972.0,STARLINK-3671,PAYLOAD,2022-04-30 14:00:01,15.63124146,0.0001675,53.2176,242.5976,35.1672,290.9995,-0.0084077,-0.00716263,0.0,0 STARLINK-3671,1 51972U 22025S   22120.58334491 -.00716263  00000-0 -84077-2 0  9994,2 51972  53.2176 242.5976 0001675  35.1672 290.9995 15.63124146  3670,6756.776,92.123,379.773,377.509,0.0
51972.0,STARLINK-3671,PAYLOAD,2022-04-30 22:00:00,15.62614491,0.0001323,53.2172,240.9755,44.3116,358.3628,-0.0085745,-0.00715902,0.0,0 STARLINK-3671,1 51972U 22025S   22120.91667824 -.00715902  00000-0 -85745-2 0  9992,2 51972  53.2172 240.9755 0001323  44.3116 358.3628 15.62614491  3700,6758.245,92.153,381.004,379.216,0.0
51972.0,STARLINK-3671,PAYLOAD,2022-05-01 06:00:00,15.62104152,0.0001743,53.2173,239.3531,33.4488,85.1223,-0.0087557,-0.00716569,0.0,0 STARLINK-3671,1 51972U 22025S   22121.25001157 -.00716569  00000-0 -87557-2 0  9994,2 51972  53.2173 239.3531 0001743  33.4488  85.1223 15.62104152  9566,6759.717,92.183,382.76,380.404,0.0
51972.0,STARLINK-3671,PAYLOAD,2022-05-01 14:00:01,15.61592862,0.0001871,53.2173,237.7354,35.6054,158.2475,-0.0088974,-0.00714017,0.0,0 STARLINK-3671,1 51972U 22025S   22121.58334491 -.00714017  00000-0 -88974-2 0  9990,2 51972  53.2173 237.7354 0001871  35.6054 158.2475 15.61592862  3682,6761.191999999999,92.214,384.322,381.792,0.0
51972.0,STARLINK-3671,PAYLOAD,2022-05-01 22:00:01,15.61085554,0.0001467,53.2173,236.1168,46.83600000000001,221.7507,-0.0091337,-0.00718186,0.0,0 STARLINK-3671,1 51972U 22025S   22121.91668981 -.00718186  00000-0 -91337-2 0  9999,2 51972  53.2173 236.1168 0001467  46.8360 221.7507 15.61085554  3703,6762.656999999997,92.244,385.514,383.53,0.0
51972.0,STARLINK-3671,PAYLOAD,2022-05-02 06:00:00,15.60572612,0.0001541999999999,53.2174,234.4982,37.0096,305.5709,-0.0092471,-0.00713248,0.0,0 STARLINK-3671,1 51972U 22025S   22122.25001157 -.00713248  00000-0 -92471-2 0  9997,2 51972  53.2174 234.4982 0001542  37.0096 305.5709 15.60572612  9729,6764.139,92.274,387.047,384.961,0.0
51972.0,STARLINK-3671,PAYLOAD,2022-05-02 14:00:01,15.6006543,0.0001889,53.2174,232.8845,27.9608,28.0614,-0.0094892,-0.00717435,0.0,0 STARLINK-3671,1 51972U 22025S   22122.58334491 -.00717435  00000-0 -94892-2 0  9994,2 51972  53.2174 232.8845 0001889  27.9608  28.0614 15.60065430  3709,6765.605,92.304,388.74800000000016,386.192,0.0
51972.0,STARLINK-3671,PAYLOAD,2022-05-02 22:00:01,15.59554176,0.0001619,53.2174,231.2692,38.4637,90.4557,-0.0096442,-0.00715114,0.0,0 STARLINK-3671,1 51972U 22025S   22122.91668981 -.00715114  00000-0 -96442-2 0  9990,2 51972  53.2174 231.2692 0001619  38.4637  90.4557 15.59554176  3709,6767.083000000001,92.334,390.044,387.853,0.0
51972.0,STARLINK-3671,PAYLOAD,2022-05-03 04:00:00,15.59170709,0.0001745,53.2175,230.0579,30.8913,62.1856,-0.0097674,-0.00713832,0.0,0 STARLINK-3671,1 51972U 22025S   22123.16667824 -.00713832  00000-0 -97674-2 0  9996,2 51972  53.2175 230.0579 0001745  30.8913  62.1856 15.59170709  9861,6768.193,92.357,391.239,388.877,0.0
51972.0,STARLINK-3671,PAYLOAD,2022-05-03 14:00:01,15.58534107,0.0001921,53.2176,228.0445,32.1353,240.543,-0.010028,-0.00715212,0.0,0 STARLINK-3671,1 51972U 22025S   22123.58334491 -.00715212  00000-0 -10028-1 0  9994,2 51972  53.2176 228.0445 0001921  32.1353 240.5430 15.58534107  3690,6770.036,92.395,393.201,390.6,0.0
51972.0,STARLINK-3671,PAYLOAD,2022-05-03 22:00:00,15.58024956,0.00015,53.2174,226.433,38.4896,305.1816,-0.01024,-0.00716171,0.0,0 STARLINK-3671,1 51972U 22025S   22123.91667824 -.00716171  00000-0 -10240-1 0  9991,2 51972  53.2174 226.4330 0001500  38.4896 305.1816 15.58024956  3701,6771.511,92.425,394.391,392.36,0.0
51972.0,STARLINK-3671,PAYLOAD,2022-05-04 06:00:02,15.57513007,0.0001802,53.2175,224.822,29.2949,24.8227,-0.010382,-0.00712569,0.0,0 STARLINK-3671,1 51972U 22025S   22124.25002315 -.00712569  00000-0 -10382-1 0  9991,2 51972  53.2175 224.8220 0001802  29.2949  24.8227 15.57513007 10038,6772.994000000002,92.455,396.08,393.639,0.0
51972.0,STARLINK-3671,PAYLOAD,2022-05-04 14:00:01,15.57004663,0.000219,53.2173,223.2157,25.7961,98.0221,-0.010624,-0.00715199,0.0,0 STARLINK-3671,1 51972U 22025S   22124.58334491 -.00715199  00000-0 -10624-1 0  9991,2 51972  53.2173 223.2157 0002190  25.7961  98.0221 15.57004663  3700,6774.469,92.485,397.817,394.85,0.0
51972.0,STARLINK-3671,PAYLOAD,2022-05-04 22:00:01,15.56494917,0.0001651,53.2174,221.6076,42.8942,150.1439,-0.010839,-0.00715689,0.0,0 STARLINK-3671,1 51972U 22025S   22124.91668981 -.00715689  00000-0 -10839-1 0  9994,2 51972  53.2174 221.6076 0001651  42.8942 150.1439 15.56494917  3708,6775.948,92.516,398.931,396.694,0.0
51972.0,STARLINK-3671,PAYLOAD,2022-05-05 06:00:00,15.55983442,0.0001628,53.2175,220.0004,43.0511,218.4648,-0.010986,-0.00711993,0.0,0 STARLINK-3671,1 51972U 22025S   22125.25001157 -.00711993  00000-0 -10986-1 0  9995,2 51972  53.2175 220.0004 0001628  43.0511 218.4648 15.55983442 10198,6777.432,92.546,400.401,398.194,0.0
51972.0,STARLINK-3671,PAYLOAD,2022-05-05 14:00:01,15.55475544,0.0001824,53.2176,218.3979,30.9811,298.462,-0.011273,-0.00716541,0.0,0 STARLINK-3671,1 51972U 22025S   22125.58334491 -.00716541  00000-0 -11273-1 0  9995,2 51972  53.2176 218.3979 0001824  30.9811 298.4620 15.55475544  3713,6778.908,92.576,402.009,399.536,0.0
51972.0,STARLINK-3671,PAYLOAD,2022-05-05 22:00:00,15.54964556,0.000147,53.2175,216.7934,39.3602,357.4001,-0.011452,-0.00714382,0.0,0 STARLINK-3671,1 51972U 22025S   22125.91667824 -.00714382  00000-0 -11452-1 0  9991,2 51972  53.2175 216.7934 0001470  39.3602 357.4001 15.54964556  3694,6780.393,92.607,403.254,401.261,0.0
51972.0,STARLINK-3671,PAYLOAD,2022-05-06 08:00:01,15.54283933,0.0001657,53.217,214.7882,34.9452,175.1212,-0.010689,-0.00655201,0.0,0 STARLINK-3671,1 51972U 22025S   22126.33334491 -.00655201  00000-0 -10689-1 0  9994,2 51972  53.2170 214.7882 0001657  34.9452 175.1212 15.54283933 10364,6782.371999999999,92.647,405.361,403.11300000000006,0.0
